DUBAISAT-1              
1 35682U 09041B   26181.79102187  .00000900  00000+0  14081-3 0  9996
2 35682  98.0069 314.9007 0011013  34.0637 326.1276 14.75145628907108
OCEANSAT-2              
1 35931U 09051A   26181.85336279 -.00000232  00000+0 -13292-3 0  9995
2 35931  98.2318 167.3408 0016325 195.3237 164.7437 13.99659857881247
WORLDVIEW-2 (WV-2)      
1 35946U 09055A   26181.80265038  .00000130  00000+0  57446-4 0  9999
2 35946  98.4764 255.0659 0004574 166.5899 193.5410 14.37903277877607
SMOS                    
1 36036U 09059A   26181.46316007  .00000242  00000+0  91019-4 0  9997
2 36036  98.4424   8.6036 0001306  87.4911 272.6427 14.39779556875369
YAOGAN-7                
1 36110U 09069A   26181.62861193  .00000498  00000+0  75950-4 0  9999
2 36110  98.0055  67.4117 0024597 359.3723   0.7453 14.78022987891617
TANDEM-X                
1 36605U 10030A   26181.56298572  .00000420  00000+0  23208-4 0  9990
2 36605  97.4456 189.0787 0001755  96.3101 263.8334 15.19150820888673
CARTOSAT-2B             
1 36795U 10035A   26181.87361420  .00000028  00000+0  10980-4 0  9999
2 36795  97.9950 232.3359 0011915 140.6129 219.5950 14.78599073861872
YAOGAN-10               
1 36834U 10038A   26181.90291759  .00001284  00000+0  15542-3 0  9990
2 36834  97.8967 205.1971 0001645  86.8965  35.5203 14.85387914859241
COSMO-SKYMED 4          
1 37216U 10060A   26181.81083679  .00001068  00000+0  14064-3 0  9998
2 37216  97.8882   5.2131 0001479  84.5525 275.5857 14.82158287846581
RESOURCESAT-2           
1 37387U 11015A   26181.74328670  .00000097  00000+0  64355-4 0  9993
2 37387  98.7639 249.0912 0010741 213.0595 146.9912 14.21603085788103
HAIYANG-2A              
1 37781U 11043A   26181.87198674 -.00000203  00000+0 -16973-3 0  9998
2 37781  99.3390 184.2403 0004791  62.2521 297.9113 13.73989866748531
RASAT                   
1 37791U 11044D   26181.87719972  .00000349  00000+0  68983-4 0  9998
2 37791  98.0586 273.0651 0021208 145.6534 281.2988 14.68178797795197
SRMSAT                  
1 37841U 11058D   26181.73281705  .00000384  00000+0  64635-4 0  9991
2 37841  19.9733 337.4831 0011789 353.4789 121.0128 14.11578376759730
PLEIADES 1A             
1 38012U 11076F   26181.85988554  .00000109  00000+0  33276-4 0  9993
2 38012  98.1980 256.7788 0001760  87.5931  46.6054 14.58538411773980
ZIYUAN 1-02C (ZY 1-02C) 
1 38038U 11079A   26181.86430178  .00000240  00000+0  93281-4 0  9997
2 38038  98.4073 248.8866 0005121 266.8866 226.1275 14.38224801761178
ARIRANG-3 (KOMPSAT-3)   
1 38338U 12025B   26181.85563662  .00000427  00000+0  94032-4 0  9998
2 38338  98.1177 139.0801 0006773  75.1893 285.0058 14.62217973753340
EXACTVIEW-1 (ADS-1B)    
1 38709U 12039C   26181.79242067  .00000117  00000+0  69835-4 0  9990
2 38709  98.9793 299.4908 0011739 129.3602 230.8618 14.24988592724642
SPOT 6                  
1 38755U 12047A   26181.84963310  .00000195  00000+0  51824-4 0  9992
2 38755  98.2120 248.9984 0001252  75.0517 285.0821 14.58530032735047
PLEIADES 1B             
1 39019U 12068A   26181.86838787  .00000237  00000+0  60788-4 0  9996
2 39019  98.1951 256.7315 0001697  83.1622 276.9770 14.58568401722844
GOKTURK 2               
1 39030U 12073A   26181.84677838  .00000898  00000+0  13877-3 0  9990
2 39030  97.6809  18.5933 0001104  60.6870 299.4450 14.75557375726522
LANDSAT 8               
1 39084U 13008A   26181.75876069  .00000320  00000+0  81237-4 0  9991
2 39084  98.2298 251.7326 0001349  93.6350 266.5002 14.57103339699879
SARAL                   
1 39086U 13009A   26181.79754378  .00000078  00000+0  44622-4 0  9993
2 39086  98.5557   8.1923 0000918 208.3483 151.7651 14.32859182697557
GAOFEN-1                
1 39150U 13018A   26181.88749083  .00000685  00000+0  10545-3 0  9992
2 39150  97.9097 253.6769 0015886 218.7006 141.3067 14.76502908710261
VNREDSAT 1              
1 39160U 13021B   26181.81867793  .00000340  00000+0  72066-4 0  9994
2 39160  97.9076 234.7113 0001700  82.3531 277.7866 14.64869768702281
ARIRANG-5 (KOMPSAT-5)   
1 39227U 13042A   26181.20181678  .00001992  00000+0  14653-3 0  9996
2 39227  97.6190   7.7178 0005077  91.6658 268.5150 15.04527377705810
SKYSAT-A                
1 39418U 13066C   26181.08762456  .00003350  00000+0  19232-3 0  9997
2 39418  97.3807 230.0738 0019696 269.2466  90.6508 15.13042686690436
DUBAISAT-2              
1 39419U 13066D   26181.85224846  .00004062  00000+0  25164-3 0  9991
2 39419  97.4563 171.6387 0010837 355.7579   4.3557 15.10280083688458
GPM-CORE                
1 39574U 14009C   26181.80527441  .00010350  00000+0  22403-3 0  9993
2 39574  64.9716 262.5098 0011318 257.0347 102.9530 15.44850145699918
SENTINEL-1A             
1 39634U 14016A   26181.87605598  .00000026  00000+0  15212-4 0  9995
2 39634  98.1774 189.2088 0001388  85.0835 275.0523 14.59199326652015
KAZEOSAT 1              
1 39731U 14024A   26181.82921078 -.00000050  00000+0 -21182-5 0  9994
2 39731  98.3209 253.9370 0001175  76.7731 283.3589 14.42084369640526
ALOS-2                  
1 39766U 14029A   26181.86863941  .00000732  00000+0  10488-3 0  9995
2 39766  97.9232 278.8362 0001598  87.5110 272.6284 14.79474729653601
